ORBCOMM FM103           
1 40091U 14040F   25090.55025701  .00001557  00000+0  37218-3 0  9995
2 40091  47.0064  24.4125 0002540 288.1736  71.8872 14.57993598569835
ORBCOMM FM114           
1 41179U 15081A   25089.82053812  .00001411  00000+0  34044-3 0  9994
2 41179  47.0028 296.9540 0002046 339.5481  20.5322 14.58046108493035
ORBCOMM FM119           
1 41180U 15081B   25090.48997194  .00001487  00000+0  35718-3 0  9992
2 41180  46.9993 203.0760 0000308   7.6614 352.4276 14.57971624494382
ORBCOMM FM105           
1 41181U 15081C   25089.61450216  .00000828  00000+0  27912-3 0  9990
2 41181  47.0009 204.5436 0002028 305.1439  54.9251 14.45128044489491
ORBCOMM FM110           
1 41182U 15081D   25089.79615230  .00001615  00000+0  38410-3 0  9999
2 41182  47.0009 296.4352 0002020 156.1558 203.9421 14.58070210492907
ORBCOMM FM118           
1 41183U 15081E   25089.98712506  .00001489  00000+0  35750-3 0  9998
2 41183  47.0035 295.9954 0002346 149.1379 210.9644 14.57997488493116
ORBCOMM FM112           
1 41184U 15081F   25090.53460808  .00002085  00000+0  48658-3 0  9991
2 41184  46.9978 202.0240 0001077 326.8526  33.2291 14.57942853494386
ORBCOMM FM113           
1 41185U 15081G   25090.58032347  .00002008  00000+0  46965-3 0  9994
2 41185  46.9995 202.1249 0000688 332.4899  27.5950 14.57972856494394
